NORAD_CAT_ID,OBJECT_NAME,OBJECT_TYPE,EPOCH,MEAN_MOTION,ECCENTRICITY,INCLINATION,RA_OF_ASC_NODE,ARG_OF_PERICENTER,MEAN_ANOMALY,BSTAR,MEAN_MOTION_DOT,MEAN_MOTION_DDOT,TLE_LINE0,TLE_LINE1,TLE_LINE2,SEMIMAJOR_AXIS,PERIOD,APOGEE,PERIGEE,DECAYED
53553.0,STARLINK-4501,PAYLOAD,2023-04-03 22:00:00,15.10478414,0.000141,53.2166,190.9713,92.4506,15.619,-5.9496e-05,-1.283e-05,0.0,0 STARLINK-4501,1 53553U 22101AC  23093.91667824 -.00001283  00000-0 -59496-4 0  9990,2 53553  53.2166 190.9713 0001410  92.4506  15.6190 15.10478414 34653,6912.877,95.334,535.717,533.767,0.0
53553.0,STARLINK-4501,PAYLOAD,2023-04-04 06:00:00,15.10487674,0.0001396,53.2168,189.4702,98.7052,22.936,0.0033692,0.00056259,0.0,0 STARLINK-4501,1 53553U 22101AC  23094.25001157  .00056259  00000-0  33692-2 0  9998,2 53553  53.2168 189.4702 0001396  98.7052  22.9360 15.10487674 34708,6912.849,95.333,535.679,533.749,0.0
53553.0,STARLINK-4501,PAYLOAD,2023-04-04 14:00:01,15.10536148,0.0001238,53.2166,187.9719,84.5931,50.6363,-0.0079235,-0.00130045,0.0,0 STARLINK-4501,1 53553U 22101AC  23094.58334491 -.00130045  00000-0 -79235-2 0  9995,2 53553  53.2166 187.9719 0001238  84.5931  50.6363 15.10536148 34758,6912.701,95.33,535.422,533.71,0.0
53553.0,STARLINK-4501,PAYLOAD,2023-04-04 16:00:00,15.10480144,0.0001165,53.2166,187.597,79.3452,149.2982,-0.0028257,-0.00047031,0.0,0 STARLINK-4501,1 53553U 22101AC  23094.66667824 -.00047031  00000-0 -28257-2 0  9993,2 53553  53.2166 187.5970 0001165  79.3452 149.2982 15.10480144  1303,6912.872,95.334,535.542,533.931,0.0
53553.0,STARLINK-4501,PAYLOAD,2023-04-04 22:00:00,15.10455009,9.95e-05,53.2163,186.4708,80.9412,67.866,7.2741e-06,-1.71e-06,0.0,0 STARLINK-4501,1 53553U 22101AC  23094.91667824 -.00000171  00000-0  72741-5 0  9994,2 53553  53.2163 186.4708 0000995  80.9412  67.8660 15.10455009 34802,6912.948,95.336,535.501,534.126,0.0
53553.0,STARLINK-4501,PAYLOAD,2023-04-05 00:00:00,15.10446014,9.66e-05,53.2164,186.0953,84.3559,157.8372,0.0016267,0.00026868,0.0,0 STARLINK-4501,1 53553U 22101AC  23095.00001157  .00026868  00000-0  16267-2 0  9994,2 53553  53.2164 186.0953 0000966  84.3559 157.8372 15.10446014  1304,6912.976,95.336,535.509,534.173,0.0
53553.0,STARLINK-4501,PAYLOAD,2023-04-05 13:13:30,15.10476245,0.0001248,53.2167,183.615,86.8287,273.2848,-4.3881e-05,-1.023e-05,0.0,0 STARLINK-4501,1 53553U 22101AC  23095.55104322 -.00001023  00000-0 -43881-4 0  9994,2 53553  53.2167 183.6150 0001248  86.8287 273.2848 15.10476245 35563,6912.884,95.334,535.611,533.886,0.0
53553.0,STARLINK-4501,PAYLOAD,2023-04-05 22:45:11,15.1047755,0.000142,53.2171,181.8284,82.8297,277.2858,-4.2034e-05,-9.92e-06,0.0,0 STARLINK-4501,1 53553U 22101AC  23095.94805176 -.00000992  00000-0 -42034-4 0  9995,2 53553  53.2171 181.8284 0001420  82.8297 277.2858 15.10477550 34963,6912.88,95.334,535.726,533.763,0.0
53553.0,STARLINK-4501,PAYLOAD,2023-04-06 11:27:26,15.10482371,0.0001119,53.2162,179.4452,83.9957,276.1164,-7.2655e-06,-4.13e-06,0.0,0 STARLINK-4501,1 53553U 22101AC  23096.47739262 -.00000413  00000-0 -72655-5 0  9997,2 53553  53.2162 179.4452 0001119  83.9957 276.1164 15.10482371 35701,6912.865,95.334,535.503,533.956,0.0
53553.0,STARLINK-4501,PAYLOAD,2023-04-06 14:38:00,15.10484995,0.0001274,53.2164,178.8496,90.6914,269.4225,1.5182e-05,-4e-07,0.0,0 STARLINK-4501,1 53553U 22101AC  23096.60972620 -.00000040  00000-0  15182-4 0  9995,2 53553  53.2164 178.8496 0001274  90.6914 269.4225 15.10484995 35060,6912.857,95.334,535.603,533.841,0.0
53553.0,STARLINK-4501,PAYLOAD,2023-04-06 22:34:25,15.10476785,0.0001352,53.2171,177.3617,83.5315,276.5832,5.6292e-05,6.45e-06,0.0,0 STARLINK-4501,1 53553U 22101AC  23096.94057111  .00000645  00000-0  56292-4 0  9998,2 53553  53.2171 177.3617 0001352  83.5315 276.5832 15.10476785 35779,6912.882,95.334,535.682,533.812,0.0
53553.0,STARLINK-4501,PAYLOAD,2023-04-07 11:16:41,15.10460061,0.000124,53.2176,174.979,76.6511,283.462,0.00023509,3.621e-05,0.0,0 STARLINK-4501,1 53553U 22101AC  23097.46992266  .00003621  00000-0  23509-3 0  9996,2 53553  53.2176 174.9790 0001240  76.6511 283.4620 15.10460061 35194,6912.933,95.335,535.655,533.941,0.0
53553.0,STARLINK-4501,PAYLOAD,2023-04-07 12:51:58,15.10463269,0.0001435,53.218,174.6811,81.9166,278.199,0.00024453,3.779e-05,0.0,0 STARLINK-4501,1 53553U 22101AC  23097.53608955  .00003779  00000-0  24453-3 0  9996,2 53553  53.2180 174.6811 0001435  81.9166 278.1990 15.10463269 35869,6912.923,95.335,535.78,533.796,0.0
53553.0,STARLINK-4501,PAYLOAD,2023-04-07 14:27:14,15.10479176,0.0001958,53.2178,174.3817,100.1985,259.9229,7.8003e-05,1.006e-05,0.0,0 STARLINK-4501,1 53553U 22101AC  23097.60225204  .00001006  00000-0  78003-4 0  9998,2 53553  53.2178 174.3817 0001958 100.1985 259.9229 15.10479176 35217,6912.875,95.334,536.093,533.386,0.0
53553.0,STARLINK-4501,PAYLOAD,2023-04-08 12:41:11,15.10483343,0.0001275,53.2177,170.2131,80.4016,279.7121,-1.3561e-05,-5.18e-06,0.0,0 STARLINK-4501,1 53553U 22101AC  23098.52860632 -.00000518  00000-0 -13561-4 0  9997,2 53553  53.2177 170.2131 0001275  80.4016 279.7121 15.10483343 36018,6912.862,95.334,535.608,533.846,0.0
53553.0,STARLINK-4501,PAYLOAD,2023-04-08 22:12:52,15.10485557,0.0001307,53.2175,168.4275,76.7214,283.3925,5.4886e-06,-2.01e-06,0.0,0 STARLINK-4501,1 53553U 22101AC  23098.92561187 -.00000201  00000-0  54886-5 0  9998,2 53553  53.2175 168.4275 0001307  76.7214 283.3925 15.10485557 35413,6912.855,95.334,535.624,533.817,0.0
53553.0,STARLINK-4501,PAYLOAD,2023-04-09 09:19:51,15.10469198,7.64e-05,53.2178,166.3436,65.7692,294.338,0.00016168,2.4e-05,0.0,0 STARLINK-4501,1 53553U 22101AC  23099.38879331  .00002400  00000-0  16168-3 0  9993,2 53553  53.2178 166.3436 0000764  65.7692 294.3380 15.10469198 35483,6912.905,95.335,535.298,534.242,0.0
53553.0,STARLINK-4501,PAYLOAD,2023-04-09 12:30:25,15.10482845,0.0001329,53.2175,165.747,78.8058,281.3084,2.692e-05,1.56e-06,0.0,0 STARLINK-4501,1 53553U 22101AC  23099.52112623  .00000156  00000-0  26920-4 0  9997,2 53553  53.2175 165.7470 0001329  78.8058 281.3084 15.10482845 36167,6912.863,95.334,535.647,533.81,0.0
53553.0,STARLINK-4501,PAYLOAD,2023-04-10 04:23:15,15.10456677,0.0001252,53.2164,162.7703,85.6112,274.5024,0.00025458,3.946e-05,0.0,0 STARLINK-4501,1 53553U 22101AC  23100.18281600  .00003946  00000-0  25458-3 0  9998,2 53553  53.2164 162.7703 0001252  85.6112 274.5024 15.10456677 35603,6912.943,95.335,535.674,533.943,0.0
53553.0,STARLINK-4501,PAYLOAD,2023-04-10 07:33:49,15.10447646,0.000121,53.2164,162.1745,89.7924,270.3207,0.0003784,6.007e-05,0.0,0 STARLINK-4501,1 53553U 22101AC  23100.31515556  .00006007  00000-0  37840-3 0  9992,2 53553  53.2164 162.1745 0001210  89.7924 270.3207 15.10447646 36281,6912.971,95.336,535.672,533.999,0.0
53553.0,STARLINK-4501,PAYLOAD,2023-04-11 08:58:34,15.10289208,7.86e-05,53.2164,157.4098,72.1706,287.9372,-0.0014777,-0.00024681,0.0,0 STARLINK-4501,1 53553U 22101AC  23101.37400875 -.00024681  00000-0 -14777-2 0  9999,2 53553  53.2164 157.4098 0000786  72.1706 287.9372 15.10289208 36443,6913.454,95.346,535.863,534.776,0.0
53553.0,STARLINK-4501,PAYLOAD,2023-04-12 04:02:46,15.09843925,0.0003581,53.2166,153.8403,309.3468,50.7207,-0.0044,-0.00071572,0.0,0 STARLINK-4501,1 53553U 22101AC  23102.16858801 -.00071572  00000-0 -44000-2 0  9996,2 53553  53.2166 153.8403 0003581 309.3468  50.7207 15.09843925 35904,6914.813,95.374,539.155,534.202,0.0
53553.0,STARLINK-4501,PAYLOAD,2023-04-12 14:00:01,15.0881525,0.0001423,53.2154,151.9767,82.2777,13.7314,0.0023555,0.00037373,0.0,0 STARLINK-4501,1 53553U 22101AC  23102.58334491  .00037373  00000-0  23555-2 0  9997,2 53553  53.2154 151.9767 0001423  82.2777  13.7314 15.08815250 35969,6917.956,95.439,540.805,538.837,0.0
53553.0,STARLINK-4501,PAYLOAD,2023-04-13 12:00:00,15.088254,0.0001478,53.2156,147.8618,84.3879,313.4965,0.0010551,0.00016537,0.0,0 STARLINK-4501,1 53553U 22101AC  23103.50001157  .00016537  00000-0  10551-2 0  9991,2 53553  53.2156 147.8618 0001478  84.3879 313.4965 15.08825400  1307,6917.925,95.438,540.812,538.768,0.0
53553.0,STARLINK-4501,PAYLOAD,2023-04-13 20:00:01,15.08830089,0.0001309,53.2153,146.364,93.5264,315.9377,-0.00024057,-4.113e-05,0.0,0 STARLINK-4501,1 53553U 22101AC  23103.83334491 -.00004113  00000-0 -24057-3 0  9993,2 53553  53.2153 146.3640 0001309  93.5264 315.9377 15.08830089 36150,6917.911,95.438,540.681,538.87,0.0
53553.0,STARLINK-4501,PAYLOAD,2023-04-14 14:00:01,15.08813951,0.0001303,53.215,142.9986,88.6359,76.9709,0.0025104,0.00039863,0.0,0 STARLINK-4501,1 53553U 22101AC  23104.58335648  .00039863  00000-0  25104-2 0  9992,2 53553  53.2150 142.9986 0001303  88.6359  76.9709 15.08813951  1307,6917.96,95.439,540.726,538.924,0.0
53553.0,STARLINK-4501,PAYLOAD,2023-04-14 22:00:00,15.08821301,0.0001297,53.215,141.5005,99.6988,77.4383,0.0027725,0.0004409,0.0,0 STARLINK-4501,1 53553U 22101AC  23104.91667824  .00044090  00000-0  27725-2 0  9992,2 53553  53.2150 141.5005 0001297  99.6988  77.4383 15.08821301 36317,6917.938,95.439,540.7,538.905,0.0
53553.0,STARLINK-4501,PAYLOAD,2023-04-15 14:00:01,15.08800472,0.0001348,53.2148,138.5094,78.7111,121.6493,0.0019334,0.00030583,0.0,0 STARLINK-4501,1 53553U 22101AC  23105.58334491  .00030583  00000-0  19334-2 0  9996,2 53553  53.2148 138.5094 0001348  78.7111 121.6493 15.08800472 36412,6918.001,95.44,540.799,538.934,0.0
53553.0,STARLINK-4501,PAYLOAD,2023-04-15 22:00:01,15.08799875,0.0001321,53.2149,137.0111,86.6371,125.3572,0.0032172,0.0005123,0.0,0 STARLINK-4501,1 53553U 22101AC  23105.91668981  .00051230  00000-0  32172-2 0  9994,2 53553  53.2149 137.0111 0001321  86.6371 125.3572 15.08799875  1307,6918.003,95.44,540.782,538.954,0.0
53553.0,STARLINK-4501,PAYLOAD,2023-04-16 08:11:36,15.08835825,0.0001687,53.2171,135.1047,82.1897,277.9287,5.5024e-06,-2e-06,0.0,0 STARLINK-4501,1 53553U 22101AC  23106.34139202 -.00000200  00000-0  55024-5 0  9997,2 53553  53.2171 135.1047 0001687  82.1897 277.9287 15.08835825 36534,6917.893,95.438,540.925,538.591,0.0
